{"fetched_at":"2026-07-19T17:31:08.183Z","source":"https://celestrak.org/NORAD/elements/gp.php?GROUP=kuiper&FORMAT=JSON","constellation":"kuiper","records":[{"OBJECT_NAME":"KUIPER-00080","OBJECT_ID":"2025-151M","EPOCH":"2026-07-19T01:43:36.149952","CLASSIFICATION_TYPE":"U","MEAN_MOTION":14.79908261,"ECCENTRICITY":0.00006713,"INCLINATION":51.9008,"RA_OF_ASC_NODE":79.5931,"ARG_OF_PERICENTER":103.6045,"MEAN_ANOMALY":256.4992,"EPHEMERIS_TYPE":0,"NORAD_CAT_ID":64827,"ELEMENT_SET_NO":999,"REV_AT_EPOCH":5476,"BSTAR":0.00024525951,"MEAN_MOTION_DOT":0.00001648,"MEAN_MOTION_DDOT":0},{"OBJECT_NAME":"KUIPER-00082","OBJECT_ID":"2025-151N","EPOCH":"2026-07-19T01:14:15.323136","CLASSIFICATION_TYPE":"U","MEAN_MOTION":14.79932931,"ECCENTRICITY":0.00009651,"INCLINATION":51.9024,"RA_OF_ASC_NODE":67.2356,"ARG_OF_PERICENTER":107.0079,"MEAN_ANOMALY":253.0989,"EPHEMERIS_TYPE":0,"NORAD_CAT_ID":64828,"ELEMENT_SET_NO":999,"REV_AT_EPOCH":5493,"BSTAR":0.000061457389,"MEAN_MOTION_DOT":0.00000247,"MEAN_MOTION_DDOT":0},{"OBJECT_NAME":"KUIPER-00083","OBJECT_ID":"2025-151P","EPOCH":"2026-07-19T01:02:36.426624","CLASSIFICATION_TYPE":"U","MEAN_MOTION":14.79931976,"ECCENTRICITY":0.00008162,"INCLINATION":51.9013,"RA_OF_ASC_NODE":74.7538,"ARG_OF_PERICENTER":112.2075,"MEAN_ANOMALY":247.8974,"EPHEMERIS_TYPE":0,"NORAD_CAT_ID":64829,"ELEMENT_SET_NO":999,"REV_AT_EPOCH":5601,"BSTAR":0.000022739905,"MEAN_MOTION_DOT":-4.8e-7,"MEAN_MOTION_DDOT":0},{"OBJECT_NAME":"KUIPER-00084","OBJECT_ID":"2025-151Q","EPOCH":"2026-07-19T02:24:17.283456","CLASSIFICATION_TYPE":"U","MEAN_MOTION":14.79916498,"ECCENTRICITY":0.00007227,"INCLINATION":51.9016,"RA_OF_ASC_NODE":84.4892,"ARG_OF_PERICENTER":102.2756,"MEAN_ANOMALY":257.8287,"EPHEMERIS_TYPE":0,"NORAD_CAT_ID":64830,"ELEMENT_SET_NO":999,"REV_AT_EPOCH":5469,"BSTAR":0.00024009847,"MEAN_MOTION_DOT":0.00001609,"MEAN_MOTION_DDOT":0},{"OBJECT_NAME":"KUIPER-00085","OBJECT_ID":"2025-151R","EPOCH":"2026-07-18T21:11:09.890304","CLASSIFICATION_TYPE":"U","MEAN_MOTION":14.7992872,"ECCENTRICITY":0.00010181,"INCLINATION":51.9018,"RA_OF_ASC_NODE":68.0289,"ARG_OF_PERICENTER":107.542,"MEAN_ANOMALY":252.5654,"EPHEMERIS_TYPE":0,"NORAD_CAT_ID":64831,"ELEMENT_SET_NO":999,"REV_AT_EPOCH":5490,"BSTAR":0.00005405044,"MEAN_MOTION_DOT":0.00000191,"MEAN_MOTION_DDOT":0},{"OBJECT_NAME":"KUIPER-00086","OBJECT_ID":"2025-151S","EPOCH":"2026-07-19T01:47:21.074208","CLASSIFICATION_TYPE":"U","MEAN_MOTION":14.79930979,"ECCENTRICITY":0.00007947,"INCLINATION":51.9012,"RA_OF_ASC_NODE":77.1269,"ARG_OF_PERICENTER":111.3519,"MEAN_ANOMALY":248.7528,"EPHEMERIS_TYPE":0,"NORAD_CAT_ID":64832,"ELEMENT_SET_NO":999,"REV_AT_EPOCH":5479,"BSTAR":0.00022623135,"MEAN_MOTION_DOT":0.00001504,"MEAN_MOTION_DDOT":0},{"OBJECT_NAME":"KUIPER-00087","OBJECT_ID":"2025-151T","EPOCH":"2026-07-19T07:06:12.413664","CLASSIFICATION_TYPE":"U","MEAN_MOTION":14.79963872,"ECCENTRICITY":0.00007416,"INCLINATION":51.9016,"RA_OF_ASC_NODE":58.6113,"ARG_OF_PERICENTER":190.7802,"MEAN_ANOMALY":169.3145,"EPHEMERIS_TYPE":0,"NORAD_CAT_ID":64833,"ELEMENT_SET_NO":999,"REV_AT_EPOCH":5506,"BSTAR":0.00075073914,"MEAN_MOTION_DOT":0.00005511,"MEAN_MOTION_DDOT":0},{"OBJECT_NAME":"KUIPER-00089","OBJECT_ID":"2025-151U","EPOCH":"2026-07-19T00:29:31.015968","CLASSIFICATION_TYPE":"U","MEAN_MOTION":14.79931499,"ECCENTRICITY":0.00007473,"INCLINATION":51.9014,"RA_OF_ASC_NODE":64.8492,"ARG_OF_PERICENTER":107.0528,"MEAN_ANOMALY":253.0517,"EPHEMERIS_TYPE":0,"NORAD_CAT_ID":64834,"ELEMENT_SET_NO":999,"REV_AT_EPOCH":5496,"BSTAR":0.000028942383,"MEAN_MOTION_DOT":-1e-8,"MEAN_MOTION_DDOT":0},{"OBJECT_NAME":"KUIPER-00090","OBJECT_ID":"2025-151V","EPOCH":"2026-07-19T00:41:09.614400","CLASSIFICATION_TYPE":"U","MEAN_MOTION":14.7993557,"ECCENTRICITY":0.00006678,"INCLINATION":51.8994,"RA_OF_ASC_NODE":57.3198,"ARG_OF_PERICENTER":100.4598,"MEAN_ANOMALY":259.644,"EPHEMERIS_TYPE":0,"NORAD_CAT_ID":64835,"ELEMENT_SET_NO":999,"REV_AT_EPOCH":5506,"BSTAR":0.00024225273,"MEAN_MOTION_DOT":0.00001626,"MEAN_MOTION_DDOT":0},{"OBJECT_NAME":"KUIPER-00091","OBJECT_ID":"2025-151W","EPOCH":"2026-07-18T19:41:40.236576","CLASSIFICATION_TYPE":"U","MEAN_MOTION":14.79931811,"ECCENTRICITY":0.00008837,"INCLINATION":51.9014,"RA_OF_ASC_NODE":63.251,"ARG_OF_PERICENTER":109.6752,"MEAN_ANOMALY":250.4306,"EPHEMERIS_TYPE":0,"NORAD_CAT_ID":64836,"ELEMENT_SET_NO":999,"REV_AT_EPOCH":5496,"BSTAR":0.000046049408,"MEAN_MOTION_DOT":0.0000013,"MEAN_MOTION_DDOT":0},{"OBJECT_NAME":"KUIPER-00092","OBJECT_ID":"2025-151X","EPOCH":"2026-07-19T00:21:44.583840","CLASSIFICATION_TYPE":"U","MEAN_MOTION":14.7993191,"ECCENTRICITY":0.00007238,"INCLINATION":51.9015,"RA_OF_ASC_NODE":69.882,"ARG_OF_PERICENTER":108.6184,"MEAN_ANOMALY":251.4857,"EPHEMERIS_TYPE":0,"NORAD_CAT_ID":64837,"ELEMENT_SET_NO":999,"REV_AT_EPOCH":5610,"BSTAR":0.0002340463,"MEAN_MOTION_DOT":0.00001563,"MEAN_MOTION_DDOT":0},{"OBJECT_NAME":"KUIPER-00093","OBJECT_ID":"2025-151Y","EPOCH":"2026-07-18T22:40:34.379904","CLASSIFICATION_TYPE":"U","MEAN_MOTION":14.79964264,"ECCENTRICITY":0.00007523,"INCLINATION":51.9007,"RA_OF_ASC_NODE":72.6661,"ARG_OF_PERICENTER":117.8619,"MEAN_ANOMALY":242.2419,"EPHEMERIS_TYPE":0,"NORAD_CAT_ID":64838,"ELEMENT_SET_NO":999,"REV_AT_EPOCH":5484,"BSTAR":0.00060667319,"MEAN_MOTION_DOT":0.0000441,"MEAN_MOTION_DDOT":0},{"OBJECT_NAME":"KUIPER-00094","OBJECT_ID":"2025-151Z","EPOCH":"2026-07-18T20:36:10.449792","CLASSIFICATION_TYPE":"U","MEAN_MOTION":14.79930623,"ECCENTRICITY":0.00010659,"INCLINATION":51.9051,"RA_OF_ASC_NODE":28.141,"ARG_OF_PERICENTER":119.0877,"MEAN_ANOMALY":241.0193,"EPHEMERIS_TYPE":0,"NORAD_CAT_ID":64839,"ELEMENT_SET_NO":999,"REV_AT_EPOCH":5546,"BSTAR":0.00022475678,"MEAN_MOTION_DOT":0.00001492,"MEAN_MOTION_DDOT":0},{"OBJECT_NAME":"KUIPER-00081","OBJECT_ID":"2025-171A","EPOCH":"2026-07-19T06:28:55.921152","CLASSIFICATION_TYPE":"U","MEAN_MOTION":14.79937594,"ECCENTRICITY":0.00003748,"INCLINATION":51.9016,"RA_OF_ASC_NODE":286.2266,"ARG_OF_PERICENTER":107.8222,"MEAN_ANOMALY":252.2782,"EPHEMERIS_TYPE":0,"NORAD_CAT_ID":65132,"ELEMENT_SET_NO":999,"REV_AT_EPOCH":5252,"BSTAR":0.00013621209,"MEAN_MOTION_DOT":0.00000818,"MEAN_MOTION_DDOT":0},{"OBJECT_NAME":"KUIPER-00088","OBJECT_ID":"2025-171B","EPOCH":"2026-07-19T07:39:00.383616","CLASSIFICATION_TYPE":"U","MEAN_MOTION":14.79933539,"ECCENTRICITY":0.00005364,"INCLINATION":51.9008,"RA_OF_ASC_NODE":303.5123,"ARG_OF_PERICENTER":122.1105,"MEAN_ANOMALY":237.9909,"EPHEMERIS_TYPE":0,"NORAD_CAT_ID":65133,"ELEMENT_SET_NO":999,"REV_AT_EPOCH":5228,"BSTAR":0.00022721559,"MEAN_MOTION_DOT":0.00001511,"MEAN_MOTION_DDOT":0},{"OBJECT_NAME":"KUIPER-00095","OBJECT_ID":"2025-171C","EPOCH":"2026-07-19T04:55:34.685184","CLASSIFICATION_TYPE":"U","MEAN_MOTION":14.79937038,"ECCENTRICITY":0.00002658,"INCLINATION":51.8994,"RA_OF_ASC_NODE":284.0614,"ARG_OF_PERICENTER":94.578,"MEAN_ANOMALY":265.5213,"EPHEMERIS_TYPE":0,"NORAD_CAT_ID":65134,"ELEMENT_SET_NO":999,"REV_AT_EPOCH":5254,"BSTAR":0.00020299773,"MEAN_MOTION_DOT":0.00001327,"MEAN_MOTION_DDOT":0}]}
