[
  {
    "name": "KUIPER-00080",
    "noradId": "64827",
    "line1": "1 64827U 25151M   26200.07194618  .00001648  00000+0  24526-3 0  9997",
    "line2": "2 64827  51.9008  79.5931 0000671 103.6045 256.4992 14.79908261 54765"
  },
  {
    "name": "KUIPER-00082",
    "noradId": "64828",
    "line1": "1 64828U 25151N   26200.05156624  .00000247  00000+0  61457-4 0  9990",
    "line2": "2 64828  51.9024  67.2356 0000965 107.0079 253.0989 14.79932931 54939"
  },
  {
    "name": "KUIPER-00083",
    "noradId": "64829",
    "line1": "1 64829U 25151P   26200.04347716 -.00000048  00000+0  22740-4 0  9996",
    "line2": "2 64829  51.9013  74.7538 0000816 112.2075 247.8974 14.79931976 56016"
  },
  {
    "name": "KUIPER-00084",
    "noradId": "64830",
    "line1": "1 64830U 25151Q   26200.10020004  .00001609  00000+0  24010-3 0  9997",
    "line2": "2 64830  51.9016  84.4892 0000722 102.2756 257.8287 14.79916498 54695"
  },
  {
    "name": "KUIPER-00085",
    "noradId": "64831",
    "line1": "1 64831U 25151R   26199.88275336  .00000191  00000+0  54050-4 0  9993",
    "line2": "2 64831  51.9018  68.0289 0001018 107.5420 252.5654 14.79928720 54906"
  },
  {
    "name": "KUIPER-00086",
    "noradId": "64832",
    "line1": "1 64832U 25151S   26200.07454947  .00001504  00000+0  22623-3 0  9994",
    "line2": "2 64832  51.9012  77.1269 0000794 111.3519 248.7528 14.79930979 54795"
  },
  {
    "name": "KUIPER-00087",
    "noradId": "64833",
    "line1": "1 64833U 25151T   26200.29597701  .00005511  00000+0  75074-3 0  9995",
    "line2": "2 64833  51.9016  58.6113 0000741 190.7802 169.3145 14.79963872 55062"
  },
  {
    "name": "KUIPER-00089",
    "noradId": "64834",
    "line1": "1 64834U 25151U   26200.02049787 -.00000001  00000+0  28942-4 0  9996",
    "line2": "2 64834  51.9014  64.8492 0000747 107.0528 253.0517 14.79931499 54964"
  },
  {
    "name": "KUIPER-00090",
    "noradId": "64835",
    "line1": "1 64835U 25151V   26200.02858350  .00001626  00000+0  24225-3 0  9993",
    "line2": "2 64835  51.8994  57.3198 0000667 100.4598 259.6440 14.79935570 55069"
  },
  {
    "name": "KUIPER-00091",
    "noradId": "64836",
    "line1": "1 64836U 25151W   26199.82060459  .00000130  00000+0  46049-4 0  9992",
    "line2": "2 64836  51.9014  63.2510 0000883 109.6752 250.4306 14.79931811 54963"
  },
  {
    "name": "KUIPER-00092",
    "noradId": "64837",
    "line1": "1 64837U 25151X   26200.01509935  .00001563  00000+0  23405-3 0  9995",
    "line2": "2 64837  51.9015  69.8820 0000723 108.6184 251.4857 14.79931910 56102"
  },
  {
    "name": "KUIPER-00093",
    "noradId": "64838",
    "line1": "1 64838U 25151Y   26199.94484236  .00004410  00000+0  60667-3 0  9996",
    "line2": "2 64838  51.9007  72.6661 0000752 117.8619 242.2419 14.79964264 54845"
  },
  {
    "name": "KUIPER-00094",
    "noradId": "64839",
    "line1": "1 64839U 25151Z   26199.85845428  .00001492  00000+0  22476-3 0  9994",
    "line2": "2 64839  51.9051  28.1410 0001065 119.0877 241.0193 14.79930623 55468"
  },
  {
    "name": "KUIPER-00081",
    "noradId": "65132",
    "line1": "1 65132U 25171A   26200.27009168  .00000818  00000+0  13621-3 0  9998",
    "line2": "2 65132  51.9016 286.2266 0000374 107.8222 252.2782 14.79937594 52529"
  },
  {
    "name": "KUIPER-00088",
    "noradId": "65133",
    "line1": "1 65133U 25171B   26200.31875444  .00001511  00000+0  22722-3 0  9995",
    "line2": "2 65133  51.9008 303.5123 0000536 122.1105 237.9909 14.79933539 52285"
  },
  {
    "name": "KUIPER-00095",
    "noradId": "65134",
    "line1": "1 65134U 25171C   26200.20526256  .00001327  00000+0  20300-3 0  9993",
    "line2": "2 65134  51.8994 284.0614 0000265  94.5780 265.5213 14.79937038 52549"
  }
]